STARLINK-3126           
1 49444U 21104AN  25364.85816510  .00001070  00000+0  85312-4 0  9997
2 49444  53.2172 158.1261 0001412  91.0226 269.0928 15.08840096228525
STARLINK-3122           
1 49445U 21104AP  25364.77635217  .00000679  00000+0  60778-4 0  9995
2 49445  53.2167 168.8812 0001333  80.9888 279.1255 15.08834216228367
STARLINK-3099           
1 49446U 21104AQ  25364.72105280 -.00001381  00000+0 -68685-4 0  9991
2 49446  53.2179 158.7335 0001437  74.5554 285.5597 15.08843028228500
STARLINK-3115           
1 49447U 21104AR  25365.26111031  .00004784  00000+0  31856-3 0  9990
2 49447  53.2151 166.3094 0001472  91.2898 268.8263 15.08829156228447
STARLINK-3137           
1 49449U 21104AT  25365.33334491  .00115464  00000+0  55934-2 0  9997
2 49449  53.2162 165.7931 0001877  96.7003  63.4399 15.17644950  5800
STARLINK-3127           
1 49450U 21104AU  25364.87101713 -.00000091  00000+0  12355-4 0  9998
2 49450  53.2172 168.0982 0001573  94.3229 265.7943 15.08838865228643
STARLINK-3125           
1 49451U 21104AV  25364.85629042  .00000846  00000+0  71201-4 0  9999
2 49451  53.2165 168.1238 0001382 109.6549 250.4592 15.08846000228386
STARLINK-3150           
1 49452U 21104AW  25364.84621713 -.00000353  00000+0 -41195-5 0  9991
2 49452  53.2166 168.2085 0001227  93.5059 266.6073 15.08838753228383
STARLINK-3129           
1 49453U 21104AX  25364.85725558  .00001823  00000+0  13259-3 0  9994
2 49453  53.2170 168.2111 0001446  86.2245 273.8912 15.08846207228383
STARLINK-3160           
1 49454U 21104AY  25364.78636911  .00001696  00000+0  12461-3 0  9993
2 49454  53.2172 168.4428 0001221  87.8514 272.2618 15.08843888228373
STARLINK-3145           
1 49455U 21104AZ  25364.83787481  .00007342  00000+0  47854-3 0  9997
2 49455  53.2143 168.2082 0001133  97.1792 262.9329 15.08868472228382
STARLINK-3124           
1 49456U 21104BA  25364.78365246  .00001430  00000+0  10791-3 0  9995
2 49456  53.2168 168.5027 0001206  85.7751 274.3379 15.08841092228371
STARLINK-3132           
1 49457U 21104BB  25364.76894190 -.00001785  00000+0 -94099-4 0  9998
2 49457  53.2171 168.5287 0001485  89.0331 271.0831 15.08838032228371
STARLINK-3156           
1 49458U 21104BC  25364.84157340  .00000695  00000+0  61722-4 0  9991
2 49458  53.2165 168.1928 0001341  88.2171 271.8975 15.08839434228382
STARLINK-3141           
1 49459U 21104BD  25364.69805553  .00000628  00000+0  57561-4 0  9993
2 49459  53.2160 168.8351 0001802 113.0821 247.0361 15.08843714228364
STARLINK-3140           
1 49460U 21104BE  25364.76062087 -.00000768  00000+0 -30163-4 0  9996
2 49460  53.2172 168.5533 0001295  85.6474 274.4666 15.08833732228363
