[{"OBJECT_NAME":"STARLINK-3126","OBJECT_ID":"2021-104AN","EPOCH":"2025-12-30T20:35:45.464640","MEAN_MOTION":15.08840096,"ECCENTRICITY":0.0001412,"INCLINATION":53.2172,"RA_OF_ASC_NODE":158.1261,"ARG_OF_PERICENTER":91.0226,"MEAN_ANOMALY":269.0928,"EPHEMERIS_TYPE":0,"CLASSIFICATION_TYPE":"U","NORAD_CAT_ID":49444,"ELEMENT_SET_NO":999,"REV_AT_EPOCH":22852,"BSTAR":8.5312e-5,"MEAN_MOTION_DOT":1.07e-5,"MEAN_MOTION_DDOT":0},{"OBJECT_NAME":"STARLINK-3122","OBJECT_ID":"2021-104AP","EPOCH":"2025-12-30T18:37:56.827488","MEAN_MOTION":15.08834216,"ECCENTRICITY":0.00013333,"INCLINATION":53.2167,"RA_OF_ASC_NODE":168.8812,"ARG_OF_PERICENTER":80.9888,"MEAN_ANOMALY":279.1255,"EPHEMERIS_TYPE":0,"CLASSIFICATION_TYPE":"U","NORAD_CAT_ID":49445,"ELEMENT_SET_NO":999,"REV_AT_EPOCH":22836,"BSTAR":6.0778015e-5,"MEAN_MOTION_DOT":6.79e-6,"MEAN_MOTION_DDOT":0},{"OBJECT_NAME":"STARLINK-3099","OBJECT_ID":"2021-104AQ","EPOCH":"2025-12-30T17:18:18.961920","MEAN_MOTION":15.08843028,"ECCENTRICITY":0.00014372,"INCLINATION":53.2179,"RA_OF_ASC_NODE":158.7335,"ARG_OF_PERICENTER":74.5554,"MEAN_ANOMALY":285.5597,"EPHEMERIS_TYPE":0,"CLASSIFICATION_TYPE":"U","NORAD_CAT_ID":49446,"ELEMENT_SET_NO":999,"REV_AT_EPOCH":22850,"BSTAR":-6.8684822e-5,"MEAN_MOTION_DOT":-1.381e-5,"MEAN_MOTION_DDOT":0},{"OBJECT_NAME":"STARLINK-3115","OBJECT_ID":"2021-104AR","EPOCH":"2025-12-31T06:15:59.930784","MEAN_MOTION":15.08829156,"ECCENTRICITY":0.00014728,"INCLINATION":53.2151,"RA_OF_ASC_NODE":166.3094,"ARG_OF_PERICENTER":91.2898,"MEAN_ANOMALY":268.8263,"EPHEMERIS_TYPE":0,"CLASSIFICATION_TYPE":"U","NORAD_CAT_ID":49447,"ELEMENT_SET_NO":999,"REV_AT_EPOCH":22844,"BSTAR":0.00031855992,"MEAN_MOTION_DOT":4.784e-5,"MEAN_MOTION_DDOT":0},{"OBJECT_NAME":"STARLINK-3137","OBJECT_ID":"2021-104AT","EPOCH":"2025-12-31T08:00:01.000224","MEAN_MOTION":15.1764495,"ECCENTRICITY":0.00018777,"INCLINATION":53.2162,"RA_OF_ASC_NODE":165.7931,"ARG_OF_PERICENTER":96.7003,"MEAN_ANOMALY":63.4399,"EPHEMERIS_TYPE":0,"CLASSIFICATION_TYPE":"U","NORAD_CAT_ID":49449,"ELEMENT_SET_NO":999,"REV_AT_EPOCH":580,"BSTAR":0.0055933631,"MEAN_MOTION_DOT":0.00115464,"MEAN_MOTION_DDOT":0},{"OBJECT_NAME":"STARLINK-3127","OBJECT_ID":"2021-104AU","EPOCH":"2025-12-30T20:54:15.880032","MEAN_MOTION":15.08838865,"ECCENTRICITY":0.0001573,"INCLINATION":53.2172,"RA_OF_ASC_NODE":168.0982,"ARG_OF_PERICENTER":94.3229,"MEAN_ANOMALY":265.7943,"EPHEMERIS_TYPE":0,"CLASSIFICATION_TYPE":"U","NORAD_CAT_ID":49450,"ELEMENT_SET_NO":999,"REV_AT_EPOCH":22864,"BSTAR":1.2355e-5,"MEAN_MOTION_DOT":-9.1e-7,"MEAN_MOTION_DDOT":0},{"OBJECT_NAME":"STARLINK-3125","OBJECT_ID":"2021-104AV","EPOCH":"2025-12-30T20:33:03.492288","MEAN_MOTION":15.08846,"ECCENTRICITY":0.0001382,"INCLINATION":53.2165,"RA_OF_ASC_NODE":168.1238,"ARG_OF_PERICENTER":109.6549,"MEAN_ANOMALY":250.4592,"EPHEMERIS_TYPE":0,"CLASSIFICATION_TYPE":"U","NORAD_CAT_ID":49451,"ELEMENT_SET_NO":999,"REV_AT_EPOCH":22838,"BSTAR":7.1201e-5,"MEAN_MOTION_DOT":8.46e-6,"MEAN_MOTION_DDOT":0},{"OBJECT_NAME":"STARLINK-3150","OBJECT_ID":"2021-104AW","EPOCH":"2025-12-30T20:18:33.160032","MEAN_MOTION":15.08838753,"ECCENTRICITY":0.00012277,"INCLINATION":53.2166,"RA_OF_ASC_NODE":168.2085,"ARG_OF_PERICENTER":93.5059,"MEAN_ANOMALY":266.6073,"EPHEMERIS_TYPE":0,"CLASSIFICATION_TYPE":"U","NORAD_CAT_ID":49452,"ELEMENT_SET_NO":999,"REV_AT_EPOCH":22838,"BSTAR":-4.119482e-6,"MEAN_MOTION_DOT":-3.53e-6,"MEAN_MOTION_DDOT":0},{"OBJECT_NAME":"STARLINK-3129","OBJECT_ID":"2021-104AX","EPOCH":"2025-12-30T20:34:26.882112","MEAN_MOTION":15.08846207,"ECCENTRICITY":0.0001446,"INCLINATION":53.217,"RA_OF_ASC_NODE":168.2111,"ARG_OF_PERICENTER":86.2245,"MEAN_ANOMALY":273.8912,"EPHEMERIS_TYPE":0,"CLASSIFICATION_TYPE":"U","NORAD_CAT_ID":49453,"ELEMENT_SET_NO":999,"REV_AT_EPOCH":22838,"BSTAR":0.00013259,"MEAN_MOTION_DOT":1.823e-5,"MEAN_MOTION_DDOT":0},{"OBJECT_NAME":"STARLINK-3160","OBJECT_ID":"2021-104AY","EPOCH":"2025-12-30T18:52:22.291104","MEAN_MOTION":15.08843888,"ECCENTRICITY":0.00012216,"INCLINATION":53.2172,"RA_OF_ASC_NODE":168.4428,"ARG_OF_PERICENTER":87.8514,"MEAN_ANOMALY":272.2618,"EPHEMERIS_TYPE":0,"CLASSIFICATION_TYPE":"U","NORAD_CAT_ID":49454,"ELEMENT_SET_NO":999,"REV_AT_EPOCH":22837,"BSTAR":0.00012461335,"MEAN_MOTION_DOT":1.696e-5,"MEAN_MOTION_DDOT":0},{"OBJECT_NAME":"STARLINK-3145","OBJECT_ID":"2021-104AZ","EPOCH":"2025-12-30T20:06:32.383584","MEAN_MOTION":15.08868472,"ECCENTRICITY":0.00011334,"INCLINATION":53.2143,"RA_OF_ASC_NODE":168.2082,"ARG_OF_PERICENTER":97.1792,"MEAN_ANOMALY":262.9329,"EPHEMERIS_TYPE":0,"CLASSIFICATION_TYPE":"U","NORAD_CAT_ID":49455,"ELEMENT_SET_NO":999,"REV_AT_EPOCH":22838,"BSTAR":0.00047853854,"MEAN_MOTION_DOT":7.342e-5,"MEAN_MOTION_DDOT":0},{"OBJECT_NAME":"STARLINK-3124","OBJECT_ID":"2021-104BA","EPOCH":"2025-12-30T18:48:27.572544","MEAN_MOTION":15.08841092,"ECCENTRICITY":0.00012065,"INCLINATION":53.2168,"RA_OF_ASC_NODE":168.5027,"ARG_OF_PERICENTER":85.7751,"MEAN_ANOMALY":274.3379,"EPHEMERIS_TYPE":0,"CLASSIFICATION_TYPE":"U","NORAD_CAT_ID":49456,"ELEMENT_SET_NO":999,"REV_AT_EPOCH":22837,"BSTAR":0.00010790862,"MEAN_MOTION_DOT":1.43e-5,"MEAN_MOTION_DDOT":0},{"OBJECT_NAME":"STARLINK-3132","OBJECT_ID":"2021-104BB","EPOCH":"2025-12-30T18:27:16.580160","MEAN_MOTION":15.08838032,"ECCENTRICITY":0.00014857,"INCLINATION":53.2171,"RA_OF_ASC_NODE":168.5287,"ARG_OF_PERICENTER":89.0331,"MEAN_ANOMALY":271.0831,"EPHEMERIS_TYPE":0,"CLASSIFICATION_TYPE":"U","NORAD_CAT_ID":49457,"ELEMENT_SET_NO":999,"REV_AT_EPOCH":22837,"BSTAR":-9.4098522e-5,"MEAN_MOTION_DOT":-1.785e-5,"MEAN_MOTION_DDOT":0},{"OBJECT_NAME":"STARLINK-3156","OBJECT_ID":"2021-104BC","EPOCH":"2025-12-30T20:11:51.941760","MEAN_MOTION":15.08839434,"ECCENTRICITY":0.0001341,"INCLINATION":53.2165,"RA_OF_ASC_NODE":168.1928,"ARG_OF_PERICENTER":88.2171,"MEAN_ANOMALY":271.8975,"EPHEMERIS_TYPE":0,"CLASSIFICATION_TYPE":"U","NORAD_CAT_ID":49458,"ELEMENT_SET_NO":999,"REV_AT_EPOCH":22838,"BSTAR":6.1721753e-5,"MEAN_MOTION_DOT":6.95e-6,"MEAN_MOTION_DDOT":0},{"OBJECT_NAME":"STARLINK-3141","OBJECT_ID":"2021-104BD","EPOCH":"2025-12-30T16:45:11.997792","MEAN_MOTION":15.08843714,"ECCENTRICITY":0.00018022,"INCLINATION":53.216,"RA_OF_ASC_NODE":168.8351,"ARG_OF_PERICENTER":113.0821,"MEAN_ANOMALY":247.0361,"EPHEMERIS_TYPE":0,"CLASSIFICATION_TYPE":"U","NORAD_CAT_ID":49459,"ELEMENT_SET_NO":999,"REV_AT_EPOCH":22836,"BSTAR":5.7560571e-5,"MEAN_MOTION_DOT":6.28e-6,"MEAN_MOTION_DDOT":0},{"OBJECT_NAME":"STARLINK-3140","OBJECT_ID":"2021-104BE","EPOCH":"2025-12-30T18:15:17.643168","MEAN_MOTION":15.08833732,"ECCENTRICITY":0.0001295,"INCLINATION":53.2172,"RA_OF_ASC_NODE":168.5533,"ARG_OF_PERICENTER":85.6474,"MEAN_ANOMALY":274.4666,"EPHEMERIS_TYPE":0,"CLASSIFICATION_TYPE":"U","NORAD_CAT_ID":49460,"ELEMENT_SET_NO":999,"REV_AT_EPOCH":22836,"BSTAR":-3.0162985e-5,"MEAN_MOTION_DOT":-7.68e-6,"MEAN_MOTION_DDOT":0}]
